{"fetched_at":"2026-07-10T07:58:43.188Z","source":"https://celestrak.org/NORAD/elements/gp.php?GROUP=planet&FORMAT=JSON","constellation":"superdove","records":[{"OBJECT_NAME":"FLOCK 4G-17","OBJECT_ID":"2025-009CA","EPOCH":"2026-07-08T18:49:32.317248","CLASSIFICATION_TYPE":"U","MEAN_MOTION":15.29994187,"ECCENTRICITY":0.00035239,"INCLINATION":97.3919,"RA_OF_ASC_NODE":271.0428,"ARG_OF_PERICENTER":242.1627,"MEAN_ANOMALY":117.9257,"EPHEMERIS_TYPE":0,"NORAD_CAT_ID":62681,"ELEMENT_SET_NO":999,"REV_AT_EPOCH":13985,"BSTAR":0.0002709717,"MEAN_MOTION_DOT":0.00007793,"MEAN_MOTION_DDOT":0},{"OBJECT_NAME":"FLOCK 4G-33","OBJECT_ID":"2025-009CE","EPOCH":"2026-07-08T18:17:02.137056","CLASSIFICATION_TYPE":"U","MEAN_MOTION":15.25750709,"ECCENTRICITY":0.00041326,"INCLINATION":97.394,"RA_OF_ASC_NODE":269.3877,"ARG_OF_PERICENTER":242.8969,"MEAN_ANOMALY":117.1848,"EPHEMERIS_TYPE":0,"NORAD_CAT_ID":62685,"ELEMENT_SET_NO":999,"REV_AT_EPOCH":8209,"BSTAR":0.00017229709,"MEAN_MOTION_DOT":0.00004325,"MEAN_MOTION_DDOT":0},{"OBJECT_NAME":"FLOCK 4H-1","OBJECT_ID":"2025-276AQ","EPOCH":"2026-07-08T18:19:50.347488","CLASSIFICATION_TYPE":"U","MEAN_MOTION":15.20800136,"ECCENTRICITY":0.00013636,"INCLINATION":97.4168,"RA_OF_ASC_NODE":263.1104,"ARG_OF_PERICENTER":193.1791,"MEAN_ANOMALY":166.9409,"EPHEMERIS_TYPE":0,"NORAD_CAT_ID":66704,"ELEMENT_SET_NO":999,"REV_AT_EPOCH":3371,"BSTAR":0.00022270174,"MEAN_MOTION_DOT":0.00004841,"MEAN_MOTION_DDOT":0},{"OBJECT_NAME":"FLOCK 4H-2","OBJECT_ID":"2025-276AR","EPOCH":"2026-07-09T04:46:43.354560","CLASSIFICATION_TYPE":"U","MEAN_MOTION":15.21074496,"ECCENTRICITY":0.00009806,"INCLINATION":97.4166,"RA_OF_ASC_NODE":263.5854,"ARG_OF_PERICENTER":159.7154,"MEAN_ANOMALY":200.4121,"EPHEMERIS_TYPE":0,"NORAD_CAT_ID":66705,"ELEMENT_SET_NO":999,"REV_AT_EPOCH":3378,"BSTAR":0.00020670896,"MEAN_MOTION_DOT":0.00004525,"MEAN_MOTION_DDOT":0},{"OBJECT_NAME":"FLOCK 4H-3","OBJECT_ID":"2025-276AS","EPOCH":"2026-07-08T23:43:01.430400","CLASSIFICATION_TYPE":"U","MEAN_MOTION":15.20193199,"ECCENTRICITY":0.00023415,"INCLINATION":97.4235,"RA_OF_ASC_NODE":263.305,"ARG_OF_PERICENTER":285.9389,"MEAN_ANOMALY":74.1588,"EPHEMERIS_TYPE":0,"NORAD_CAT_ID":66706,"ELEMENT_SET_NO":999,"REV_AT_EPOCH":3373,"BSTAR":0.00018376432,"MEAN_MOTION_DOT":0.00003912,"MEAN_MOTION_DDOT":0},{"OBJECT_NAME":"FLOCK 4H-4","OBJECT_ID":"2025-276AT","EPOCH":"2026-07-09T03:43:20.169984","CLASSIFICATION_TYPE":"U","MEAN_MOTION":15.19985603,"ECCENTRICITY":0.00030671,"INCLINATION":97.4216,"RA_OF_ASC_NODE":263.3394,"ARG_OF_PERICENTER":287.2693,"MEAN_ANOMALY":72.8206,"EPHEMERIS_TYPE":0,"NORAD_CAT_ID":66707,"ELEMENT_SET_NO":999,"REV_AT_EPOCH":3375,"BSTAR":0.00025583659,"MEAN_MOTION_DOT":0.00005441,"MEAN_MOTION_DDOT":0},{"OBJECT_NAME":"FLOCK 4H-5","OBJECT_ID":"2025-276AU","EPOCH":"2026-07-09T06:46:58.190016","CLASSIFICATION_TYPE":"U","MEAN_MOTION":15.20858812,"ECCENTRICITY":0.00009777,"INCLINATION":97.4169,"RA_OF_ASC_NODE":263.6419,"ARG_OF_PERICENTER":128.1897,"MEAN_ANOMALY":231.9426,"EPHEMERIS_TYPE":0,"NORAD_CAT_ID":66708,"ELEMENT_SET_NO":999,"REV_AT_EPOCH":3379,"BSTAR":0.00021817239,"MEAN_MOTION_DOT":0.00004749,"MEAN_MOTION_DDOT":0},{"OBJECT_NAME":"FLOCK 4H-6","OBJECT_ID":"2025-276AV","EPOCH":"2026-07-08T16:03:51.809760","CLASSIFICATION_TYPE":"U","MEAN_MOTION":15.20553045,"ECCENTRICITY":0.0001932,"INCLINATION":97.4221,"RA_OF_ASC_NODE":263.0803,"ARG_OF_PERICENTER":236.3322,"MEAN_ANOMALY":123.773,"EPHEMERIS_TYPE":0,"NORAD_CAT_ID":66709,"ELEMENT_SET_NO":999,"REV_AT_EPOCH":3369,"BSTAR":0.00020435962,"MEAN_MOTION_DOT":0.00004404,"MEAN_MOTION_DDOT":0},{"OBJECT_NAME":"FLOCK 4H-7","OBJECT_ID":"2025-276AW","EPOCH":"2026-07-09T15:17:53.765376","CLASSIFICATION_TYPE":"U","MEAN_MOTION":15.20333077,"ECCENTRICITY":0.0001055,"INCLINATION":97.4178,"RA_OF_ASC_NODE":263.7956,"ARG_OF_PERICENTER":346.1394,"MEAN_ANOMALY":13.9812,"EPHEMERIS_TYPE":0,"NORAD_CAT_ID":66710,"ELEMENT_SET_NO":999,"REV_AT_EPOCH":3383,"BSTAR":0.00021937,"MEAN_MOTION_DOT":0.00004702,"MEAN_MOTION_DDOT":0},{"OBJECT_NAME":"FLOCK 4H-8","OBJECT_ID":"2025-276AX","EPOCH":"2026-07-08T18:33:20.283552","CLASSIFICATION_TYPE":"U","MEAN_MOTION":15.20432587,"ECCENTRICITY":0.00020043,"INCLINATION":97.4216,"RA_OF_ASC_NODE":263.0907,"ARG_OF_PERICENTER":311.5286,"MEAN_ANOMALY":48.5777,"EPHEMERIS_TYPE":0,"NORAD_CAT_ID":66711,"ELEMENT_SET_NO":999,"REV_AT_EPOCH":3370,"BSTAR":0.00021027495,"MEAN_MOTION_DOT":0.00004518,"MEAN_MOTION_DDOT":0},{"OBJECT_NAME":"FLOCK 4H-9","OBJECT_ID":"2025-276AY","EPOCH":"2026-07-09T18:36:18.410976","CLASSIFICATION_TYPE":"U","MEAN_MOTION":15.2074171,"ECCENTRICITY":0.0001978,"INCLINATION":97.421,"RA_OF_ASC_NODE":264.1702,"ARG_OF_PERICENTER":241.2635,"MEAN_ANOMALY":118.8402,"EPHEMERIS_TYPE":0,"NORAD_CAT_ID":66712,"ELEMENT_SET_NO":999,"REV_AT_EPOCH":3386,"BSTAR":0.0002205,"MEAN_MOTION_DOT":0.00004784,"MEAN_MOTION_DDOT":0},{"OBJECT_NAME":"FLOCK 4H-10","OBJECT_ID":"2025-276AZ","EPOCH":"2026-07-08T17:52:23.250720","CLASSIFICATION_TYPE":"U","MEAN_MOTION":15.20108727,"ECCENTRICITY":0.0002903,"INCLINATION":97.4183,"RA_OF_ASC_NODE":262.8729,"ARG_OF_PERICENTER":290.7514,"MEAN_ANOMALY":69.341,"EPHEMERIS_TYPE":0,"NORAD_CAT_ID":66713,"ELEMENT_SET_NO":999,"REV_AT_EPOCH":3369,"BSTAR":0.00024119162,"MEAN_MOTION_DOT":0.00005144,"MEAN_MOTION_DDOT":0},{"OBJECT_NAME":"FLOCK 4H-11","OBJECT_ID":"2025-276BA","EPOCH":"2026-07-08T18:47:37.310208","CLASSIFICATION_TYPE":"U","MEAN_MOTION":15.2321449,"ECCENTRICITY":0.00012034,"INCLINATION":97.4191,"RA_OF_ASC_NODE":263.4726,"ARG_OF_PERICENTER":294.5608,"MEAN_ANOMALY":65.5504,"EPHEMERIS_TYPE":0,"NORAD_CAT_ID":66714,"ELEMENT_SET_NO":999,"REV_AT_EPOCH":3373,"BSTAR":0.00040914423,"MEAN_MOTION_DOT":0.00009616,"MEAN_MOTION_DDOT":0},{"OBJECT_NAME":"FLOCK 4H-12","OBJECT_ID":"2025-276BB","EPOCH":"2026-07-07T17:20:32.864640","CLASSIFICATION_TYPE":"U","MEAN_MOTION":15.20748833,"ECCENTRICITY":0.0001057,"INCLINATION":97.4179,"RA_OF_ASC_NODE":262.0871,"ARG_OF_PERICENTER":207.481,"MEAN_ANOMALY":152.637,"EPHEMERIS_TYPE":0,"NORAD_CAT_ID":66715,"ELEMENT_SET_NO":999,"REV_AT_EPOCH":3386,"BSTAR":0.00020223571,"MEAN_MOTION_DOT":0.00004383,"MEAN_MOTION_DDOT":0},{"OBJECT_NAME":"FLOCK 4H-13","OBJECT_ID":"2025-276BC","EPOCH":"2026-07-09T00:13:49.074528","CLASSIFICATION_TYPE":"U","MEAN_MOTION":15.20862235,"ECCENTRICITY":0.00014409,"INCLINATION":97.4216,"RA_OF_ASC_NODE":263.5238,"ARG_OF_PERICENTER":149.585,"MEAN_ANOMALY":210.5469,"EPHEMERIS_TYPE":0,"NORAD_CAT_ID":66716,"ELEMENT_SET_NO":999,"REV_AT_EPOCH":3375,"BSTAR":0.00020734367,"MEAN_MOTION_DOT":0.0000451,"MEAN_MOTION_DDOT":0},{"OBJECT_NAME":"FLOCK 4H-14","OBJECT_ID":"2025-276BD","EPOCH":"2026-07-08T15:25:55.291584","CLASSIFICATION_TYPE":"U","MEAN_MOTION":15.21309666,"ECCENTRICITY":0.00013856,"INCLINATION":97.4196,"RA_OF_ASC_NODE":263.2066,"ARG_OF_PERICENTER":145.3489,"MEAN_ANOMALY":214.7837,"EPHEMERIS_TYPE":0,"NORAD_CAT_ID":66717,"ELEMENT_SET_NO":999,"REV_AT_EPOCH":3295,"BSTAR":0.00020046552,"MEAN_MOTION_DOT":0.00004416,"MEAN_MOTION_DDOT":0}]}
